ALOS-4 (DAICHI-4)       
1 60182U 24123A   24295.80586251  .00005453  00000+0  73631-3 0  9995
2 60182  97.9216  30.6399 0001443  96.9670 263.1706 14.79482807 16666
